STARLINK-34592          
1 64746U 25144Y   26068.52569976  .00024323  00000+0  83034-3 0  9998
2 64746  53.1605 169.2442 0001438 152.0048 208.1030 15.30213038 39869
2025-313BC              
1 67298U 25313BC  26068.18968176  .00075331  00000+0  26410-2 0  9997
2 67298  97.3985 144.8110 0008478 328.9209  31.1528 15.29126358  7890
